NORAD_CAT_ID,OBJECT_NAME,OBJECT_TYPE,EPOCH,MEAN_MOTION,ECCENTRICITY,INCLINATION,RA_OF_ASC_NODE,ARG_OF_PERICENTER,MEAN_ANOMALY,BSTAR,MEAN_MOTION_DOT,MEAN_MOTION_DDOT,TLE_LINE0,TLE_LINE1,TLE_LINE2,SEMIMAJOR_AXIS,PERIOD,APOGEE,PERIGEE,DECAYED
51737.0,STARLINK-3509,PAYLOAD,2023-10-07 10:00:36,15.08841172,0.0001914,53.2174,328.7759,103.6841,256.4364,0.0001734,2.473e-05,0.0,0 STARLINK-3509,1 51737U 22016Z   23280.41708727  .00002473  00000-0  17340-3 0  9999,2 51737  53.2174 328.7759 0001914 103.6841 256.4364 15.08841172 91126,6917.877,95.437,541.066,538.418,0.0
51737.0,STARLINK-3509,PAYLOAD,2023-10-08 03:29:51,15.08836586,0.0001779,53.2172,325.5053,103.3386,256.7804,2.0961e-05,4.5e-07,0.0,0 STARLINK-3509,1 51737U 22016Z   23281.14573103  .00000045  00000-0  20961-4 0  9995,2 51737  53.2172 325.5053 0001779 103.3386 256.7804 15.08836586 91233,6917.891,95.438,540.987,538.525,0.0
51737.0,STARLINK-3509,PAYLOAD,2023-10-08 09:51:23,15.08842434,0.0001577,53.2158,324.3172,91.0581,269.0592,0.00011899,1.606e-05,0.0,0 STARLINK-3509,1 51737U 22016Z   23281.41069017  .00001606  00000-0  11899-3 0  9992,2 51737  53.2158 324.3172 0001577  91.0581 269.0592 15.08842434 90219,6917.873,95.437,540.829,538.647,0.0
51737.0,STARLINK-3509,PAYLOAD,2023-10-08 19:23:42,15.08841265,0.0001533,53.2157,322.5311,90.1386,269.9781,0.0001205,1.63e-05,0.0,0 STARLINK-3509,1 51737U 22016Z   23281.80813150  .00001630  00000-0  12050-3 0  9997,2 51737  53.2157 322.5311 0001533  90.1386 269.9781 15.08841265 90274,6917.877,95.437,540.802,538.681,0.0
51737.0,STARLINK-3509,PAYLOAD,2023-10-09 09:42:10,15.08850109,0.0001718,53.2172,319.859,100.0203,260.0983,0.00028424,4.24e-05,0.0,0 STARLINK-3509,1 51737U 22016Z   23282.40428775  .00004240  00000-0  28424-3 0  9991,2 51737  53.2172 319.8590 0001718 100.0203 260.0983 15.08850109 91424,6917.849,95.437,540.903,538.526,0.0
51737.0,STARLINK-3509,PAYLOAD,2023-10-10 00:00:38,15.08843074,0.0001674,53.2162,317.1819,93.4362,266.6821,0.00014661,2.046e-05,0.0,0 STARLINK-3509,1 51737U 22016Z   23283.00045082  .00002046  00000-0  14661-3 0  9994,2 51737  53.2162 317.1819 0001674  93.4362 266.6821 15.08843074 91516,6917.871,95.437,540.894,538.578,0.0
51737.0,STARLINK-3509,PAYLOAD,2023-10-10 09:32:57,15.08837576,0.0001601,53.2162,315.3991,92.7949,267.3226,5.4953e-05,5.87e-06,0.0,0 STARLINK-3509,1 51737U 22016Z   23283.39789269  .00000587  00000-0  54953-4 0  9995,2 51737  53.2162 315.3991 0001601  92.7949 267.3226 15.08837576 90516,6917.888,95.438,540.86,538.645,0.0
51737.0,STARLINK-3509,PAYLOAD,2023-10-10 19:05:17,15.088348,0.0001571,53.2164,313.6126,89.0329,271.0843,3.4613e-05,2.63e-06,0.0,0 STARLINK-3509,1 51737U 22016Z   23283.79533851  .00000263  00000-0  34613-4 0  9995,2 51737  53.2164 313.6126 0001571  89.0329 271.0843 15.08834800 90576,6917.896,95.438,540.848,538.674,0.0
51737.0,STARLINK-3509,PAYLOAD,2023-10-11 03:02:13,15.08829917,0.0001579,53.2169,312.1262,92.5749,267.5424,-1.7566e-05,-5.67e-06,0.0,0 STARLINK-3509,1 51737U 22016Z   23284.12654376 -.00000567  00000-0 -17566-4 0  9996,2 51737  53.2169 312.1262 0001579  92.5749 267.5424 15.08829917 91680,6917.911,95.438,540.869,538.684,0.0
51737.0,STARLINK-3509,PAYLOAD,2023-10-11 09:23:45,15.08838621,0.000168,53.217,310.9372,92.5582,267.5602,-3.2094e-05,-7.99e-06,0.0,0 STARLINK-3509,1 51737U 22016Z   23284.39149958 -.00000799  00000-0 -32094-4 0  9990,2 51737  53.2170 310.9372 0001680  92.5582 267.5602 15.08838621 91723,6917.885,95.438,540.912,538.587,0.0
51737.0,STARLINK-3509,PAYLOAD,2023-10-12 09:14:32,15.08843875,0.0001595,53.2163,306.4745,87.0229,273.0946,0.00014548,2.028e-05,0.0,0 STARLINK-3509,1 51737U 22016Z   23285.38509369  .00002028  00000-0  14548-3 0  9994,2 51737  53.2163 306.4745 0001595  87.0229 273.0946 15.08843875 90810,6917.869,95.437,540.837,538.63,0.0
51737.0,STARLINK-3509,PAYLOAD,2023-10-12 18:46:51,15.08838219,0.0001672,53.2167,304.6924,83.9893,276.1289,0.00010788,1.429e-05,0.0,0 STARLINK-3509,1 51737U 22016Z   23285.78253916  .00001429  00000-0  10788-3 0  9998,2 51737  53.2167 304.6924 0001672  83.9893 276.1289 15.08838219 91935,6917.886,95.438,540.908,538.594,0.0
51737.0,STARLINK-3509,PAYLOAD,2023-10-13 07:29:56,15.08838389,0.0001621,53.216,302.3114,89.9932,270.1246,0.00014282,1.986e-05,0.0,0 STARLINK-3509,1 51737U 22016Z   23286.31245939  .00001986  00000-0  14282-3 0  9995,2 51737  53.2160 302.3114 0001621  89.9932 270.1246 15.08838389 90954,6917.885,95.438,540.872,538.629,0.0
51737.0,STARLINK-3509,PAYLOAD,2023-10-13 18:37:38,15.08845872,0.0001617,53.2159,300.2304,86.8072,273.3105,0.00012067,1.633e-05,0.0,0 STARLINK-3509,1 51737U 22016Z   23286.77613494  .00001633  00000-0  12067-3 0  9998,2 51737  53.2159 300.2304 0001617  86.8072 273.3105 15.08845872 91029,6917.862,95.437,540.846,538.609,0.0
51737.0,STARLINK-3509,PAYLOAD,2023-10-14 04:09:56,15.08846859,0.0001643,53.2171,298.4466,90.3934,269.7247,0.00013676,1.89e-05,0.0,0 STARLINK-3509,1 51737U 22016Z   23287.17357304  .00001890  00000-0  13676-3 0  9990,2 51737  53.2171 298.4466 0001643  90.3934 269.7247 15.08846859 92142,6917.859,95.437,540.861,538.588,0.0
51737.0,STARLINK-3509,PAYLOAD,2023-10-14 07:20:42,15.08853502,0.0001828,53.2175,297.851,98.8318,261.2881,0.00013621,1.881e-05,0.0,0 STARLINK-3509,1 51737U 22016Z   23287.30604815  .00001881  00000-0  13621-3 0  9997,2 51737  53.2175 297.8510 0001828  98.8318 261.2881 15.08853502 91102,6917.839,95.437,540.969,538.44,0.0
51737.0,STARLINK-3509,PAYLOAD,2023-10-15 04:00:45,15.08825023,0.0001429,53.2162,293.9847,90.2055,269.9101,6.8063e-06,-1.8e-06,0.0,0 STARLINK-3509,1 51737U 22016Z   23288.16719188 -.00000180  00000-0  68063-5 0  9996,2 51737  53.2162 293.9847 0001429  90.2055 269.9101 15.08825023 92297,6917.926,95.439,540.78,538.803,0.0
51737.0,STARLINK-3509,PAYLOAD,2023-10-15 07:11:31,15.088262,0.0001503,53.2167,293.3892,106.9632,253.1525,1.5259e-06,-2.64e-06,0.0,0 STARLINK-3509,1 51737U 22016Z   23288.29967175 -.00000264  00000-0  15259-5 0  9993,2 51737  53.2167 293.3892 0001503 106.9632 253.1525 15.08826200 91253,6917.923,95.438,540.827,538.748,0.0
51737.0,STARLINK-3509,PAYLOAD,2023-10-16 07:02:16,15.08854758,0.0001558,53.2166,288.9292,98.4987,261.6182,0.00015082,2.114e-05,0.0,0 STARLINK-3509,1 51737U 22016Z   23289.29325206  .00002114  00000-0  15082-3 0  9994,2 51737  53.2166 288.9292 0001558  98.4987 261.6182 15.08854758 92460,6917.835,95.437,540.778,538.622,0.0
51737.0,STARLINK-3509,PAYLOAD,2023-10-16 22:56:08,15.08850119,0.0001223,53.2161,285.9534,91.2198,268.8934,0.00031942,4.801e-05,0.0,0 STARLINK-3509,1 51737U 22016Z   23289.95564996  .00004801  00000-0  31942-3 0  9996,2 51737  53.2161 285.9534 0001223  91.2198 268.8934 15.08850119 91500,6917.849,95.437,540.561,538.868,0.0
51737.0,STARLINK-3509,PAYLOAD,2023-10-17 10:03:51,15.08847015,0.0001325,53.2156,283.8734,96.6014,263.5129,0.0002833,4.225e-05,0.0,0 STARLINK-3509,1 51737U 22016Z   23290.41934139  .00004225  00000-0  28330-3 0  9996,2 51737  53.2156 283.8734 0001325  96.6014 263.5129 15.08847015 92636,6917.859,95.437,540.641,538.807,0.0
51737.0,STARLINK-3509,PAYLOAD,2023-10-17 22:46:56,15.08833124,0.0001334,53.2165,281.4954,91.7362,268.3783,-0.00013655,-2.46e-05,0.0,0 STARLINK-3509,1 51737U 22016Z   23290.94926846 -.00002460  00000-0 -13655-3 0  9995,2 51737  53.2165 281.4954 0001334  91.7362 268.3783 15.08833124 91652,6917.901,95.438,540.689,538.844,0.0
51737.0,STARLINK-3509,PAYLOAD,2023-10-18 06:43:52,15.08842281,0.0001349,53.2165,280.0083,90.912,269.2027,1.0692e-05,-1.18e-06,0.0,0 STARLINK-3509,1 51737U 22016Z   23291.28046375 -.00000118  00000-0  10692-4 0  9999,2 51737  53.2165 280.0083 0001349  90.9120 269.2027 15.08842281 92767,6917.873,95.437,540.672,538.805,0.0
51737.0,STARLINK-3509,PAYLOAD,2023-10-18 16:16:10,15.08842077,0.0001345,53.2162,278.2243,92.2398,267.8748,-4.0344e-05,-9.3e-06,0.0,0 STARLINK-3509,1 51737U 22016Z   23291.67790354 -.00000930  00000-0 -40344-4 0  9995,2 51737  53.2162 278.2243 0001345  92.2398 267.8748 15.08842077 91765,6917.874,95.437,540.669,538.809,0.0
51737.0,STARLINK-3509,PAYLOAD,2023-10-19 08:10:02,15.08853948,0.0001476,53.2157,275.2513,93.7378,266.3783,0.00038594,5.862e-05,0.0,0 STARLINK-3509,1 51737U 22016Z   23292.34030156  .00005862  00000-0  38594-3 0  9997,2 51737  53.2157 275.2513 0001476  93.7378 266.3783 15.08853948 92926,6917.838,95.437,540.724,538.682,0.0
51737.0,STARLINK-3509,PAYLOAD,2023-10-19 16:06:58,15.08841476,0.0001566,53.2161,273.7641,89.5217,270.5954,0.00015503,2.18e-05,0.0,0 STARLINK-3509,1 51737U 22016Z   23292.67150695  .00002180  00000-0  15503-3 0  9999,2 51737  53.2161 273.7641 0001566  89.5217 270.5954 15.08841476 92976,6917.876,95.437,540.824,538.658,0.0
51737.0,STARLINK-3509,PAYLOAD,2023-10-19 22:28:30,15.08842951,0.0001511,53.2165,272.5782,86.6351,273.4814,0.00026683,3.962e-05,0.0,0 STARLINK-3509,1 51737U 22016Z   23292.93646790  .00003962  00000-0  26683-3 0  9994,2 51737  53.2165 272.5782 0001511  86.6351 273.4814 15.08842951 91953,6917.871,95.437,540.782,538.691,0.0
51737.0,STARLINK-3509,PAYLOAD,2023-10-20 06:25:26,15.08846251,0.000165,53.2156,271.0881,82.9428,277.1751,0.0002779,4.138e-05,0.0,0 STARLINK-3509,1 51737U 22016Z   23293.26766644  .00004138  00000-0  27790-3 0  9998,2 51737  53.2156 271.0881 0001650  82.9428 277.1751 15.08846251 92000,6917.861,95.437,540.868,538.585,0.0
51737.0,STARLINK-3509,PAYLOAD,2023-10-20 22:19:18,15.08841473,0.0001737,53.2169,268.116,86.3135,273.8056,0.00018371,2.637e-05,0.0,0 STARLINK-3509,1 51737U 22016Z   23293.93006983  .00002637  00000-0  18371-3 0  9992,2 51737  53.2169 268.1160 0001737  86.3135 273.8056 15.08841473 92103,6917.876,95.437,540.943,538.539,0.0
51737.0,STARLINK-3509,PAYLOAD,2023-10-21 03:05:27,15.08841828,0.0001732,53.2169,267.2226,85.1212,274.9978,0.00020452,2.969e-05,0.0,0 STARLINK-3509,1 51737U 22016Z   23294.12879057  .00002969  00000-0  20452-3 0  9995,2 51737  53.2169 267.2226 0001732  85.1212 274.9978 15.08841828 93193,6917.875,95.437,540.938,538.542,0.0
